[{"OBJECT_NAME":"STARLINK-37064","OBJECT_ID":"2026-049R","EPOCH":"2026-03-19T12:16:14.522880","MEAN_MOTION":16.03667729,"ECCENTRICITY":0.00022388,"INCLINATION":97.2784,"RA_OF_ASC_NODE":98.0764,"ARG_OF_PERICENTER":357.8304,"MEAN_ANOMALY":2.2966,"EPHEMERIS_TYPE":0,"CLASSIFICATION_TYPE":"U","NORAD_CAT_ID":68157,"ELEMENT_SET_NO":999,"REV_AT_EPOCH":95,"BSTAR":-0.00022898351,"MEAN_MOTION_DOT":-0.00144348,"MEAN_MOTION_DDOT":1.0411467e-5},{"OBJECT_NAME":"STARLINK-37069","OBJECT_ID":"2026-049S","EPOCH":"2026-03-19T12:13:33.650400","MEAN_MOTION":16.06600253,"ECCENTRICITY":0.0001368,"INCLINATION":97.2784,"RA_OF_ASC_NODE":98.0788,"ARG_OF_PERICENTER":7.264,"MEAN_ANOMALY":352.8662,"EPHEMERIS_TYPE":0,"CLASSIFICATION_TYPE":"U","NORAD_CAT_ID":68158,"ELEMENT_SET_NO":999,"REV_AT_EPOCH":95,"BSTAR":0.0014785,"MEAN_MOTION_DOT":0.01093981,"MEAN_MOTION_DDOT":0.00068408},{"OBJECT_NAME":"STARLINK-37053","OBJECT_ID":"2026-049T","EPOCH":"2026-03-19T07:44:16.985184","MEAN_MOTION":16.05261971,"ECCENTRICITY":0.00025313,"INCLINATION":97.2784,"RA_OF_ASC_NODE":97.8738,"ARG_OF_PERICENTER":141.0873,"MEAN_ANOMALY":219.0591,"EPHEMERIS_TYPE":0,"CLASSIFICATION_TYPE":"U","NORAD_CAT_ID":68159,"ELEMENT_SET_NO":999,"REV_AT_EPOCH":92,"BSTAR":9.5454192e-5,"MEAN_MOTION_DOT":0.00065181,"MEAN_MOTION_DDOT":4.110318e-6},{"OBJECT_NAME":"STARLINK-36306","OBJECT_ID":"2026-049U","EPOCH":"2026-03-19T12:13:21.534528","MEAN_MOTION":16.04569636,"ECCENTRICITY":0.0002364,"INCLINATION":97.2782,"RA_OF_ASC_NODE":98.0789,"ARG_OF_PERICENTER":13.0399,"MEAN_ANOMALY":347.0943,"EPHEMERIS_TYPE":0,"CLASSIFICATION_TYPE":"U","NORAD_CAT_ID":68160,"ELEMENT_SET_NO":999,"REV_AT_EPOCH":95,"BSTAR":-0.00030343808,"MEAN_MOTION_DOT":-0.00201573,"MEAN_MOTION_DDOT":1.8201465e-5},{"OBJECT_NAME":"STARLINK-37057","OBJECT_ID":"2026-049V","EPOCH":"2026-03-20T19:44:00.954528","MEAN_MOTION":15.99652779,"ECCENTRICITY":5.165e-5,"INCLINATION":97.2774,"RA_OF_ASC_NODE":99.5066,"ARG_OF_PERICENTER":61.6825,"MEAN_ANOMALY":298.4505,"EPHEMERIS_TYPE":0,"CLASSIFICATION_TYPE":"U","NORAD_CAT_ID":68161,"ELEMENT_SET_NO":999,"REV_AT_EPOCH":116,"BSTAR":-0.0015396315,"MEAN_MOTION_DOT":-0.00764003,"MEAN_MOTION_DDOT":0.00019799191},{"OBJECT_NAME":"STARLINK-37013","OBJECT_ID":"2026-049W","EPOCH":"2026-03-21T16:40:57.524736","MEAN_MOTION":15.97720878,"ECCENTRICITY":0.00024193,"INCLINATION":97.2751,"RA_OF_ASC_NODE":100.463,"ARG_OF_PERICENTER":181.7796,"MEAN_ANOMALY":178.3473,"EPHEMERIS_TYPE":0,"CLASSIFICATION_TYPE":"U","NORAD_CAT_ID":68162,"ELEMENT_SET_NO":999,"REV_AT_EPOCH":130,"BSTAR":-0.00096709955,"MEAN_MOTION_DOT":-0.00432164,"MEAN_MOTION_DDOT":6.6806153e-5},{"OBJECT_NAME":"STARLINK-36958","OBJECT_ID":"2026-049X","EPOCH":"2026-03-21T19:43:37.594560","MEAN_MOTION":15.96566451,"ECCENTRICITY":0.0001991,"INCLINATION":97.2737,"RA_OF_ASC_NODE":100.5959,"ARG_OF_PERICENTER":109.9976,"MEAN_ANOMALY":250.1515,"EPHEMERIS_TYPE":0,"CLASSIFICATION_TYPE":"U","NORAD_CAT_ID":68163,"ELEMENT_SET_NO":999,"REV_AT_EPOCH":132,"BSTAR":-0.0017839671,"MEAN_MOTION_DOT":-0.00746686,"MEAN_MOTION_DDOT":0.00018327201},{"OBJECT_NAME":"STARLINK-37002","OBJECT_ID":"2026-049Y","EPOCH":"2026-03-20T19:41:35.358432","MEAN_MOTION":16.00359997,"ECCENTRICITY":5.68e-5,"INCLINATION":97.2773,"RA_OF_ASC_NODE":99.5096,"ARG_OF_PERICENTER":170.3743,"MEAN_ANOMALY":189.7546,"EPHEMERIS_TYPE":0,"CLASSIFICATION_TYPE":"U","NORAD_CAT_ID":68164,"ELEMENT_SET_NO":999,"REV_AT_EPOCH":116,"BSTAR":-0.00092965787,"MEAN_MOTION_DOT":-0.00481185,"MEAN_MOTION_DDOT":8.4172413e-5},{"OBJECT_NAME":"STARLINK-36971","OBJECT_ID":"2026-049Z","EPOCH":"2026-03-21T09:10:47.185248","MEAN_MOTION":15.99800071,"ECCENTRICITY":0.00082212,"INCLINATION":97.2764,"RA_OF_ASC_NODE":100.1226,"ARG_OF_PERICENTER":134.8506,"MEAN_ANOMALY":225.3442,"EPHEMERIS_TYPE":0,"CLASSIFICATION_TYPE":"U","NORAD_CAT_ID":68165,"ELEMENT_SET_NO":999,"REV_AT_EPOCH":125,"BSTAR":-0.0032495883,"MEAN_MOTION_DOT":-0.01621138,"MEAN_MOTION_DDOT":0.00080040981},{"OBJECT_NAME":"STARLINK-36273","OBJECT_ID":"2026-049AA","EPOCH":"2026-03-20T18:09:04.725216","MEAN_MOTION":16.01239572,"ECCENTRICITY":6.488e-5,"INCLINATION":97.275,"RA_OF_ASC_NODE":99.4439,"ARG_OF_PERICENTER":211.7263,"MEAN_ANOMALY":148.3977,"EPHEMERIS_TYPE":0,"CLASSIFICATION_TYPE":"U","NORAD_CAT_ID":68166,"ELEMENT_SET_NO":999,"REV_AT_EPOCH":115,"BSTAR":-0.0005628694,"MEAN_MOTION_DOT":-0.00306844,"MEAN_MOTION_DDOT":3.6956624e-5},{"OBJECT_NAME":"STARLINK-36969","OBJECT_ID":"2026-050A","EPOCH":"2026-03-19T13:41:02.541120","MEAN_MOTION":15.9734321,"ECCENTRICITY":4.88e-5,"INCLINATION":53.1618,"RA_OF_ASC_NODE":232.5443,"ARG_OF_PERICENTER":318.1927,"MEAN_ANOMALY":41.9065,"EPHEMERIS_TYPE":0,"CLASSIFICATION_TYPE":"U","NORAD_CAT_ID":68167,"ELEMENT_SET_NO":999,"REV_AT_EPOCH":203,"BSTAR":-0.0016788,"MEAN_MOTION_DOT":-0.00762286,"MEAN_MOTION_DDOT":0.00019812},{"OBJECT_NAME":"STARLINK-36984","OBJECT_ID":"2026-050B","EPOCH":"2026-03-19T13:40:45.953184","MEAN_MOTION":15.97468217,"ECCENTRICITY":5.65e-5,"INCLINATION":53.162,"RA_OF_ASC_NODE":232.5441,"ARG_OF_PERICENTER":333.0752,"MEAN_ANOMALY":27.0248,"EPHEMERIS_TYPE":0,"CLASSIFICATION_TYPE":"U","NORAD_CAT_ID":68168,"ELEMENT_SET_NO":999,"REV_AT_EPOCH":203,"BSTAR":-0.0016463,"MEAN_MOTION_DOT":-0.00752821,"MEAN_MOTION_DDOT":0.000194},{"OBJECT_NAME":"STARLINK-37077","OBJECT_ID":"2026-050C","EPOCH":"2026-03-19T13:40:26.349024","MEAN_MOTION":15.97622802,"ECCENTRICITY":7.45e-5,"INCLINATION":53.1619,"RA_OF_ASC_NODE":232.5425,"ARG_OF_PERICENTER":335.0992,"MEAN_ANOMALY":25.0002,"EPHEMERIS_TYPE":0,"CLASSIFICATION_TYPE":"U","NORAD_CAT_ID":68169,"ELEMENT_SET_NO":999,"REV_AT_EPOCH":203,"BSTAR":-0.0016046,"MEAN_MOTION_DOT":-0.00740191,"MEAN_MOTION_DDOT":0.00018853},{"OBJECT_NAME":"STARLINK-37003","OBJECT_ID":"2026-050D","EPOCH":"2026-03-19T13:40:06.896064","MEAN_MOTION":15.97788708,"ECCENTRICITY":4.61e-5,"INCLINATION":53.162,"RA_OF_ASC_NODE":232.5407,"ARG_OF_PERICENTER":327.9149,"MEAN_ANOMALY":32.1853,"EPHEMERIS_TYPE":0,"CLASSIFICATION_TYPE":"U","NORAD_CAT_ID":68170,"ELEMENT_SET_NO":999,"REV_AT_EPOCH":203,"BSTAR":-0.0015382,"MEAN_MOTION_DOT":-0.00716345,"MEAN_MOTION_DDOT":0.00017815},{"OBJECT_NAME":"STARLINK-37034","OBJECT_ID":"2026-050E","EPOCH":"2026-03-19T13:39:46.570464","MEAN_MOTION":15.9791914,"ECCENTRICITY":5.85e-5,"INCLINATION":53.1619,"RA_OF_ASC_NODE":232.5395,"ARG_OF_PERICENTER":340.0636,"MEAN_ANOMALY":20.0371,"EPHEMERIS_TYPE":0,"CLASSIFICATION_TYPE":"U","NORAD_CAT_ID":68171,"ELEMENT_SET_NO":999,"REV_AT_EPOCH":203,"BSTAR":-0.0015903,"MEAN_MOTION_DOT":-0.00745719,"MEAN_MOTION_DDOT":0.00019165},{"OBJECT_NAME":"STARLINK-37031","OBJECT_ID":"2026-050F","EPOCH":"2026-03-19T13:39:25.217568","MEAN_MOTION":15.98076782,"ECCENTRICITY":4.58e-5,"INCLINATION":53.162,"RA_OF_ASC_NODE":232.5378,"ARG_OF_PERICENTER":346.3779,"MEAN_ANOMALY":13.7239,"EPHEMERIS_TYPE":0,"CLASSIFICATION_TYPE":"U","NORAD_CAT_ID":68172,"ELEMENT_SET_NO":999,"REV_AT_EPOCH":203,"BSTAR":-0.0015788,"MEAN_MOTION_DOT":-0.00746879,"MEAN_MOTION_DDOT":0.0001925},{"OBJECT_NAME":"STARLINK-37076","OBJECT_ID":"2026-050G","EPOCH":"2026-03-19T12:09:00.468288","MEAN_MOTION":15.98507778,"ECCENTRICITY":6.45e-5,"INCLINATION":53.1615,"RA_OF_ASC_NODE":232.8571,"ARG_OF_PERICENTER":359.7564,"MEAN_ANOMALY":0.3466,"EPHEMERIS_TYPE":0,"CLASSIFICATION_TYPE":"U","NORAD_CAT_ID":68173,"ELEMENT_SET_NO":999,"REV_AT_EPOCH":202,"BSTAR":-0.0017873,"MEAN_MOTION_DOT":-0.00864982,"MEAN_MOTION_DDOT":0.00025162},{"OBJECT_NAME":"STARLINK-37078","OBJECT_ID":"2026-050H","EPOCH":"2026-03-19T13:38:45.418272","MEAN_MOTION":15.98372202,"ECCENTRICITY":2.61e-5,"INCLINATION":53.1617,"RA_OF_ASC_NODE":232.5342,"ARG_OF_PERICENTER":74.2706,"MEAN_ANOMALY":285.8353,"EPHEMERIS_TYPE":0,"CLASSIFICATION_TYPE":"U","NORAD_CAT_ID":68174,"ELEMENT_SET_NO":999,"REV_AT_EPOCH":203,"BSTAR":-0.0016768,"MEAN_MOTION_DOT":-0.00805867,"MEAN_MOTION_DDOT":0.00022125},{"OBJECT_NAME":"STARLINK-36886","OBJECT_ID":"2026-050J","EPOCH":"2026-03-19T13:38:26.608992","MEAN_MOTION":15.98517353,"ECCENTRICITY":8.12e-5,"INCLINATION":53.1618,"RA_OF_ASC_NODE":232.5329,"ARG_OF_PERICENTER":328.5582,"MEAN_ANOMALY":31.54,"EPHEMERIS_TYPE":0,"CLASSIFICATION_TYPE":"U","NORAD_CAT_ID":68175,"ELEMENT_SET_NO":999,"REV_AT_EPOCH":203,"BSTAR":-0.0014987,"MEAN_MOTION_DOT":-0.00726912,"MEAN_MOTION_DDOT":0.00018427},{"OBJECT_NAME":"STARLINK-36905","OBJECT_ID":"2026-050K","EPOCH":"2026-03-19T13:38:05.675136","MEAN_MOTION":15.98675796,"ECCENTRICITY":7.18e-5,"INCLINATION":53.1619,"RA_OF_ASC_NODE":232.5315,"ARG_OF_PERICENTER":321.9812,"MEAN_ANOMALY":38.1167,"EPHEMERIS_TYPE":0,"CLASSIFICATION_TYPE":"U","NORAD_CAT_ID":68176,"ELEMENT_SET_NO":999,"REV_AT_EPOCH":203,"BSTAR":-0.0014521,"MEAN_MOTION_DOT":-0.00710734,"MEAN_MOTION_DDOT":0.00017733},{"OBJECT_NAME":"STARLINK-36668","OBJECT_ID":"2026-050L","EPOCH":"2026-03-19T13:37:43.637088","MEAN_MOTION":15.98826248,"ECCENTRICITY":6.96e-5,"INCLINATION":53.1621,"RA_OF_ASC_NODE":232.5297,"ARG_OF_PERICENTER":333.7333,"MEAN_ANOMALY":26.3662,"EPHEMERIS_TYPE":0,"CLASSIFICATION_TYPE":"U","NORAD_CAT_ID":68177,"ELEMENT_SET_NO":999,"REV_AT_EPOCH":203,"BSTAR":-0.0014604,"MEAN_MOTION_DOT":-0.00720821,"MEAN_MOTION_DDOT":0.00018212},{"OBJECT_NAME":"STARLINK-36677","OBJECT_ID":"2026-050M","EPOCH":"2026-03-19T13:37:24.300768","MEAN_MOTION":15.9889842,"ECCENTRICITY":9.19e-5,"INCLINATION":53.1619,"RA_OF_ASC_NODE":232.5274,"ARG_OF_PERICENTER":18.8959,"MEAN_ANOMALY":341.2106,"EPHEMERIS_TYPE":0,"CLASSIFICATION_TYPE":"U","NORAD_CAT_ID":68178,"ELEMENT_SET_NO":999,"REV_AT_EPOCH":203,"BSTAR":-0.0018795,"MEAN_MOTION_DOT":-0.00929161,"MEAN_MOTION_DDOT":0.00028745},{"OBJECT_NAME":"STARLINK-37052","OBJECT_ID":"2026-050N","EPOCH":"2026-03-19T13:37:01.873056","MEAN_MOTION":15.99173693,"ECCENTRICITY":8.47e-5,"INCLINATION":53.1613,"RA_OF_ASC_NODE":232.5262,"ARG_OF_PERICENTER":251.3193,"MEAN_ANOMALY":108.7745,"EPHEMERIS_TYPE":0,"CLASSIFICATION_TYPE":"U","NORAD_CAT_ID":68179,"ELEMENT_SET_NO":999,"REV_AT_EPOCH":203,"BSTAR":-0.0013225,"MEAN_MOTION_DOT":-0.00666179,"MEAN_MOTION_DDOT":0.00015892}]
